NORAD_CAT_ID,OBJECT_NAME,OBJECT_TYPE,EPOCH,MEAN_MOTION,ECCENTRICITY,INCLINATION,RA_OF_ASC_NODE,ARG_OF_PERICENTER,MEAN_ANOMALY,BSTAR,MEAN_MOTION_DOT,MEAN_MOTION_DDOT,TLE_LINE0,TLE_LINE1,TLE_LINE2,SEMIMAJOR_AXIS,PERIOD,APOGEE,PERIGEE,DECAYED
51734.0,STARLINK-3450,PAYLOAD,2023-09-21 09:11:58,15.08837924,0.0001376,53.2185,40.7544,68.9683,291.1457,0.00024623,3.633e-05,0.0,0 STARLINK-3450,1 51734U 22016W   23264.38332068  .00003633  00000-0  24623-3 0  9996,2 51734  53.2185  40.7544 0001376  68.9683 291.1457 15.08837924 88751,6917.887,95.438,540.704,538.8,0.0
51734.0,STARLINK-3450,PAYLOAD,2023-09-21 17:08:54,15.08857379,0.0001441,53.2185,39.2665,71.383,288.7319,0.00079338,0.00012367,0.0,0 STARLINK-3450,1 51734U 22016W   23264.71451622  .00012367  00000-0  79338-3 0  9998,2 51734  53.2185  39.2665 0001441  71.3830 288.7319 15.08857379 88804,6917.827,95.436,540.689,538.695,0.0
51734.0,STARLINK-3450,PAYLOAD,2023-09-22 02:41:13,15.08852376,0.0001803,53.2192,37.4846,64.057,296.0608,0.00069946,0.00010865,0.0,0 STARLINK-3450,1 51734U 22016W   23265.11195870  .00010865  00000-0  69946-3 0  9998,2 51734  53.2192  37.4846 0001803  64.0570 296.0608 15.08852376 88866,6917.843,95.437,540.955,538.46,0.0
51734.0,STARLINK-3450,PAYLOAD,2023-09-22 13:48:54,15.08851869,0.0001478,53.2185,35.4014,70.1444,289.9707,0.000349,5.272e-05,0.0,0 STARLINK-3450,1 51734U 22016W   23265.57563486  .00005272  00000-0  34900-3 0  9998,2 51734  53.2185  35.4014 0001478  70.1444 289.9707 15.08851869 87821,6917.844,95.437,540.732,538.687,0.0
51734.0,STARLINK-3450,PAYLOAD,2023-09-22 16:59:40,15.08860194,0.0001499,53.2192,34.8062,75.1243,284.9915,0.00049688,7.633e-05,0.0,0 STARLINK-3450,1 51734U 22016W   23265.70811157  .00007633  00000-0  49688-3 0  9996,2 51734  53.2192  34.8062 0001499  75.1243 284.9915 15.08860194 87849,6917.819,95.436,540.721,538.647,0.0
51734.0,STARLINK-3450,PAYLOAD,2023-09-23 12:04:18,15.08846878,0.000153,53.2181,31.2358,107.8249,252.291,0.00020143,2.92e-05,0.0,0 STARLINK-3450,1 51734U 22016W   23266.50299036  .00002920  00000-0  20143-3 0  9990,2 51734  53.2181  31.2358 0001530 107.8249 252.2910 15.08846878 89074,6917.859,95.437,540.783,538.666,0.0
51734.0,STARLINK-3450,PAYLOAD,2023-09-23 13:39:41,15.08845799,0.0001354,53.2178,30.9384,107.0087,253.1053,0.00020216,2.931e-05,0.0,0 STARLINK-3450,1 51734U 22016W   23266.56923089  .00002931  00000-0  20216-3 0  9991,2 51734  53.2178  30.9384 0001354 107.0087 253.1053 15.08845799 87977,6917.863,95.437,540.664,538.791,0.0
51734.0,STARLINK-3450,PAYLOAD,2023-09-23 15:15:04,15.08843548,0.0001344,53.2183,30.6427,77.5482,282.5661,0.00011893,1.606e-05,0.0,0 STARLINK-3450,1 51734U 22016W   23266.63547238  .00001606  00000-0  11893-3 0  9996,2 51734  53.2183  30.6427 0001344  77.5482 282.5661 15.08843548 89093,6917.87,95.437,540.664,538.805,0.0
51734.0,STARLINK-3450,PAYLOAD,2023-09-24 13:30:28,15.08841893,0.0001396,53.2181,26.4803,75.9712,284.1435,0.00011898,1.606e-05,0.0,0 STARLINK-3450,1 51734U 22016W   23267.56283505  .00001606  00000-0  11898-3 0  9998,2 51734  53.2181  26.4803 0001396  75.9712 284.1435 15.08841893 88128,6917.875,95.437,540.705,538.774,0.0
51734.0,STARLINK-3450,PAYLOAD,2023-09-24 16:41:14,15.08849335,0.0001423,53.2187,25.8832,84.9426,275.1729,0.00023068,3.386e-05,0.0,0 STARLINK-3450,1 51734U 22016W   23267.69531060  .00003386  00000-0  23068-3 0  9993,2 51734  53.2187  25.8832 0001423  84.9426 275.1729 15.08849335 89252,6917.852,95.437,540.701,538.732,0.0
51734.0,STARLINK-3450,PAYLOAD,2023-09-25 06:59:43,15.08841579,0.0001262,53.2182,23.2076,105.2426,254.8706,0.00016516,2.342e-05,0.0,0 STARLINK-3450,1 51734U 22016W   23268.29147462  .00002342  00000-0  16516-3 0  9990,2 51734  53.2182  23.2076 0001262 105.2426 254.8706 15.08841579 89348,6917.876,95.437,540.614,538.868,0.0
51734.0,STARLINK-3450,PAYLOAD,2023-09-25 13:21:15,15.08850444,0.0001424,53.218,22.0201,100.6347,259.4806,0.00027805,4.141e-05,0.0,0 STARLINK-3450,1 51734U 22016W   23268.55642993  .00004141  00000-0  27805-3 0  9990,2 51734  53.2180  22.0201 0001424 100.6347 259.4806 15.08850444 88278,6917.848,95.437,540.699,538.728,0.0
51734.0,STARLINK-3450,PAYLOAD,2023-09-25 16:32:01,15.08863187,0.0001313,53.2178,21.4257,97.9933,262.1208,0.00078331,0.00012208,0.0,0 STARLINK-3450,1 51734U 22016W   23268.68890723  .00012208  00000-0  78331-3 0  9993,2 51734  53.2178  21.4257 0001313  97.9933 262.1208 15.08863187 89406,6917.81,95.436,540.583,538.766,0.0
51734.0,STARLINK-3450,PAYLOAD,2023-09-26 11:36:40,15.08830953,0.0001838,53.2179,17.8548,108.925,251.1942,0.0002597,3.846e-05,0.0,0 STARLINK-3450,1 51734U 22016W   23269.48379902  .00003846  00000-0  25970-3 0  9992,2 51734  53.2179  17.8548 0001838 108.9250 251.1942 15.08830953 89527,6917.908,95.438,541.045,538.502,0.0
51734.0,STARLINK-3450,PAYLOAD,2023-09-26 13:12:03,15.08830705,0.0001669,53.2178,17.567,127.0051,233.1094,0.00029064,4.339e-05,0.0,0 STARLINK-3450,1 51734U 22016W   23269.55003967  .00004339  00000-0  29064-3 0  9991,2 51734  53.2178  17.5670 0001669 127.0051 233.1094 15.08830705 88423,6917.909,95.438,540.928,538.619,0.0
51734.0,STARLINK-3450,PAYLOAD,2023-09-26 14:47:26,15.08828906,0.0001521,53.2183,17.2591,64.2862,295.8287,0.00010221,1.339e-05,0.0,0 STARLINK-3450,1 51734U 22016W   23269.61628289  .00001339  00000-0  10221-3 0  9990,2 51734  53.2183  17.2591 0001521  64.2862 295.8287 15.08828906 89540,6917.914,95.438,540.832,538.727,0.0
51734.0,STARLINK-3450,PAYLOAD,2023-09-27 13:02:50,15.08850297,0.0001403,53.2175,13.1003,74.1571,285.9576,0.00074446,0.00011583,0.0,0 STARLINK-3450,1 51734U 22016W   23270.54364220  .00011583  00000-0  74446-3 0  9997,2 51734  53.2175  13.1003 0001403  74.1571 285.9576 15.08850297 88571,6917.849,95.437,540.684,538.743,0.0
51734.0,STARLINK-3450,PAYLOAD,2023-09-27 14:38:13,15.08857097,0.0001459,53.2177,12.8035,69.2991,290.8158,0.00096903,0.00015175,0.0,0 STARLINK-3450,1 51734U 22016W   23270.60988147  .00015175  00000-0  96903-3 0  9997,2 51734  53.2177  12.8035 0001459  69.2991 290.8158 15.08857097 89696,6917.828,95.436,540.702,538.684,0.0
51734.0,STARLINK-3450,PAYLOAD,2023-09-28 12:53:37,15.08851175,0.0001525,53.2179,8.6413,70.198,289.9177,0.00054353,8.375e-05,0.0,0 STARLINK-3450,1 51734U 22016W   23271.53724239  .00008375  00000-0  54353-3 0  9997,2 51734  53.2179   8.6413 0001525  70.1980 289.9177 15.08851175 89831,6917.846,95.437,540.766,538.656,0.0
51734.0,STARLINK-3450,PAYLOAD,2023-09-28 16:04:23,15.08852669,0.0001456,53.2182,8.0448,73.9961,286.1192,0.00065252,0.00010116,0.0,0 STARLINK-3450,1 51734U 22016W   23271.66972131  .00010116  00000-0  65252-3 0  9993,2 51734  53.2182   8.0448 0001456  73.9961 286.1192 15.08852669 88744,6917.842,95.437,540.714,538.699,0.0
51734.0,STARLINK-3450,PAYLOAD,2023-09-29 12:44:24,15.08844192,0.0001574,53.2187,4.1808,89.0258,271.0915,0.00052173,8.026e-05,0.0,0 STARLINK-3450,1 51734U 22016W   23272.53084267  .00008026  00000-0  52173-3 0  9999,2 51734  53.2187   4.1808 0001574  89.0258 271.0915 15.08844192 89989,6917.868,95.437,540.821,538.644,0.0
51734.0,STARLINK-3450,PAYLOAD,2023-09-29 14:19:47,15.08848839,0.0001514,53.2183,3.8816,92.7966,267.32,0.00072124,0.00011212,0.0,0 STARLINK-3450,1 51734U 22016W   23272.59708171  .00011212  00000-0  72124-3 0  9991,2 51734  53.2183   3.8816 0001514  92.7966 267.3200 15.08848839 88886,6917.853,95.437,540.766,538.671,0.0
51734.0,STARLINK-3450,PAYLOAD,2023-09-30 12:35:11,15.08854757,0.0001695,53.2185,359.7191,102.1846,257.9337,0.00047134,7.224e-05,0.0,0 STARLINK-3450,1 51734U 22016W   23273.52443869  .00007224  00000-0  47134-3 0  9996,2 51734  53.2185 359.7191 0001695 102.1846 257.9337 15.08854757 90133,6917.835,95.437,540.873,538.528,0.0
51734.0,STARLINK-3450,PAYLOAD,2023-10-01 12:25:58,15.08851776,0.0001493,53.2179,355.2586,101.2702,258.8458,0.00031328,4.703e-05,0.0,0 STARLINK-3450,1 51734U 22016W   23274.51803618  .00004703  00000-0  31328-3 0  9995,2 51734  53.2179 355.2586 0001493 101.2702 258.8458 15.08851776 90280,6917.844,95.437,540.742,538.677,0.0
51734.0,STARLINK-3450,PAYLOAD,2023-10-01 21:58:17,15.08843111,0.0001362,53.2176,353.4751,103.8478,256.2666,0.00011002,1.464e-05,0.0,0 STARLINK-3450,1 51734U 22016W   23274.91547612  .00001464  00000-0  11002-3 0  9996,2 51734  53.2176 353.4751 0001362 103.8478 256.2666 15.08843111 90348,6917.871,95.437,540.678,538.794,0.0
51734.0,STARLINK-3450,PAYLOAD,2023-10-02 12:16:46,15.08831208,0.0001732,53.219,350.8036,100.174,259.9447,-2.9167e-05,-7.52e-06,0.0,0 STARLINK-3450,1 51734U 22016W   23275.51164567 -.00000752  00000-0 -29167-4 0  9990,2 51734  53.2190 350.8036 0001732 100.1740 259.9447 15.08831208 90435,6917.907,95.438,540.97,538.574,0.0
51734.0,STARLINK-3450,PAYLOAD,2023-10-02 13:52:09,15.08831078,0.0001665,53.2184,350.5065,101.9414,258.1765,1.7446e-05,-1e-07,0.0,0 STARLINK-3450,1 51734U 22016W   23275.57788628 -.00000010  00000-0  17446-4 0  9999,2 51734  53.2184 350.5065 0001665 101.9414 258.1765 15.08831078 89335,6917.908,95.438,540.924,538.621,0.0
51734.0,STARLINK-3450,PAYLOAD,2023-10-03 12:07:33,15.08857284,0.0001585,53.2167,346.3401,86.1421,273.9753,0.00095143,0.00014894,0.0,0 STARLINK-3450,1 51734U 22016W   23276.50524557  .00014894  00000-0  95143-3 0  9995,2 51734  53.2167 346.3401 0001585  86.1421 273.9753 15.08857284 90584,6917.828,95.436,540.789,538.596,0.0
51734.0,STARLINK-3450,PAYLOAD,2023-10-04 10:22:56,15.08858994,0.0001587,53.2166,342.1784,96.7457,263.3716,0.00077121,0.00012013,0.0,0 STARLINK-3450,1 51734U 22016W   23277.43260314  .00012013  00000-0  77121-3 0  9993,2 51734  53.2166 342.1784 0001587  96.7457 263.3716 15.08858994 90726,6917.822,95.436,540.785,538.589,0.0
51734.0,STARLINK-3450,PAYLOAD,2023-10-04 11:58:20,15.08859532,0.0001629,53.2163,341.8785,81.1377,278.98,0.00082549,0.00012881,0.0,0 STARLINK-3450,1 51734U 22016W   23277.49884342  .00012881  00000-0  82549-3 0  9995,2 51734  53.2163 341.8785 0001629  81.1377 278.9800 15.08859532 89628,6917.821,95.436,540.813,538.559,0.0
